satname,norad_id,inclination_deg,eccentricity,mean_motion_rev_per_day,perigee_km,apogee_km,l1,l2
STARLINK-1225,45187,53.1572,0.0002812,15.32415995,466.6811781933975,470.53178672793456,1 45187U 20012K   26126.32920233  .00033813  00000+0  10722-2 0  9992,2 45187  53.1572 131.7230 0002812  51.7265 308.3989 15.32415995343763
STARLINK-1230,45189,53.1564,0.0003117,15.32368816,466.6128409619405,470.8811884567094,1 45189U 20012M   26126.40404880  .00036342  00000+0  11528-2 0  9993,2 45189  53.1564 131.4313 0003117  54.5172 305.6120 15.32368816341003
STARLINK-1234,45190,53.041,0.000831,15.70381603,352.2079964076129,363.4031329501104,1 45190U 20012N   26126.95168915  .00052895  00000+0  42587-3 0  9992,2 45190  53.0410  38.5406 0008310 115.9996 244.1878 15.70381603345013
STARLINK-1269,45197,53.1563,0.0003422,15.32325854,466.53194453533706,471.21803954268853,1 45197U 20012V   26126.33457085  .00014749  00000+0  47672-3 0  9996,2 45197  53.1563 131.6036 0003422  36.1525 323.9707 15.32325854343744
STARLINK-1154,45198,53.0432,0.0002746,15.55329811,399.3324746026319,403.05568323117404,1 45198U 20012W   26126.17198119  .00082743  00000+0  11921-2 0  9995,2 45198  53.0432  93.8240 0002746  21.6631 338.4494 15.55329811344219
STARLINK-1199,45201,53.1576,0.0002721,15.32339545,466.97114709641846,470.69726882779287,1 45201U 20012Z   26126.37059632  .00036462  00000+0  11576-2 0  9991,2 45201  53.1576 115.6975 0002721  71.1163 289.0133 15.32339545343990
STARLINK-1209,45206,53.0401,0.0011694,15.61147583,376.43299037879933,392.24907400048414,1 45206U 20012AE  26126.27902552  .00053708  00000+0  62437-3 0  9998,2 45206  53.0401  54.4402 0011694 103.1291 257.1027 15.61147583343880
STARLINK-1231,45212,53.0415,0.0004466,15.25829669,485.228677684162,491.36177494870753,1 45212U 20012AL  26126.93103781  .00034866  00000+0  13518-2 0  9994,2 45212  53.0415 107.2513 0004466   4.8395 355.2645 15.25829669344107
STARLINK-1271,45217,53.1572,0.0002631,15.32308587,467.1249671287833,470.72789190539424,1 45217U 20012AR  26126.23998699  .00033407  00000+0  10630-2 0  9994,2 45217  53.1572 116.4542 0002631  66.6643 293.4636 15.32308587343971
STARLINK-1191,45222,53.1564,0.0005663,15.36119321,453.72674619288864,461.468899453218,1 45222U 20012AW  26126.88690348  .00039206  00000+0  11029-2 0  9997,2 45222  53.1564  87.3183 0005663  84.3619 275.8030 15.36119321344448
STARLINK-1212,45223,53.0418,0.0005061,15.63710774,373.53035275189177,380.36785090416197,1 45223U 20012AX  26126.90959598  .00107371  00000+0  11197-2 0  9991,2 45223  53.0418  67.3826 0005061  53.8472 306.3009 15.63710774344713
STARLINK-1215,45225,53.1578,0.0002517,15.32576338,466.40571697999985,469.8521272451908,1 45225U 20012AZ  26126.17722032  .00038239  00000+0  12042-2 0  9999,2 45225  53.1578  91.0469 0002517  89.0850 271.0440 15.32576338344285
STARLINK-1221,45227,53.0667,0.0002981,15.43899951,432.5813868991663,436.6431480124229,1 45227U 20012BB  26126.94856461  .00012785  00000+0  28570-3 0  9992,2 45227  53.0667 353.1103 0002981 157.1546 202.9593 15.43899951345707
STARLINK-1222,45228,53.0544,0.000118,15.53140034,406.7640031222081,408.36542872716655,1 45228U 20012BC  26126.86042695  .00027191  00000+0  43224-3 0  9990,2 45228  53.0544  63.1548 0001180  61.2358 298.8770 15.53140034344655
STARLINK-1226,45229,53.1562,0.0003236,15.40716525,441.78572508805973,446.2010078612411,1 45229U 20012BD  26126.19110440  .00048644  00000+0  11750-2 0  9995,2 45229  53.1562  88.9985 0003236  83.7177 276.4197 15.40716525344250
STARLINK-1227,45230,53.1551,0.000433,15.40859402,440.61783636206474,446.5254360410145,1 45230U 20012BE  26126.26836847  .00047128  00000+0  11334-2 0  9995,2 45230  53.1551  88.7765 0004330  84.6553 275.4946 15.40859402344385
STARLINK-1246,45235,53.1565,0.000325,15.32554231,465.96970210734344,470.41981775129716,1 45235U 20012BK  26126.40862841  .00039799  00000+0  12535-2 0  9998,2 45235  53.1565 130.9114 0003250  70.9466 289.1888 15.32554231343811
STARLINK-1270,45237,53.0425,0.0004851,15.56838536,393.52696385088075,400.10002081854327,1 45237U 20012BM  26126.92729521  .00077804  00000+0  10609-2 0  9993,2 45237  53.0425  67.2580 0004851  72.8373 287.3169 15.56838536344713
STARLINK-1279,45360,53.0357,0.0008913,15.70221767,352.2585139044095,364.2668199506743,1 45360U 20019A   26127.00002315  .00170322  00000+0  13504-2 0  9998,2 45360  53.0357 173.1076 0008913   5.1721  27.5358 15.70221767  5985
STARLINK-1301,45361,53.0386,0.000636,15.72470753,347.5578287267226,356.11835704487385,1 45361U 20019B   26126.38240769  .00056275  00000+0  41490-3 0  9992,2 45361  53.0386 179.3359 0006360  24.7414 335.3908 15.72470753339669
STARLINK-1262,45366,53.1577,0.00019,15.3151831,469.98026765996474,472.5830467497026,1 45366U 20019G   26126.35821249  .00036262  00000+0  11812-2 0  9990,2 45366  53.1577 257.3742 0001900 340.5110  19.5819 15.31518310338586
STARLINK-1273,45367,53.047,0.0004503,15.52967622,405.01111586955903,411.1227711410802,1 45367U 20019H   26126.68274268  .00063999  00000+0  10087-2 0  9990,2 45367  53.0470 237.1106 0004503 302.0786  57.9785 15.52967622338880
STARLINK-1277,45369,53.0446,0.0005538,15.58955393,386.93053691637124,394.4276776367906,1 45369U 20019K   26126.57582916  .00094320  00000+0  11841-2 0  9993,2 45369  53.0446 233.1629 0005538 288.4483  71.5927 15.58955393338935
STARLINK-1281,45370,53.1567,0.000243,15.32465849,466.79426743347176,470.1217125986186,1 45370U 20019L   26126.38936438  .00032335  00000+0  10244-2 0  9990,2 45370  53.1567 257.0588 0002430 335.2592  24.8293 15.32465849338594
STARLINK-1300,45374,53.1606,0.0002948,15.32655541,465.874847551152,469.91126687288397,1 45374U 20019Q   26125.75736127  .00051668  00000+0  16162-2 0  9992,2 45374  53.1606 259.9943 0002948 345.5898  14.5019 15.32655541338496
STARLINK-1302,45375,53.0469,0.0003673,15.64360973,372.5967617668048,377.55767293086865,1 45375U 20019R   26126.66007798  .00092842  00000+0  94639-3 0  9994,2 45375  53.0469 229.8344 0003673 327.2113  32.8673 15.64360973338987
STARLINK-1304,45376,53.0448,0.0004644,15.58274777,389.5055783589487,395.7942852612141,1 45376U 20019S   26126.68310407  .00086246  00000+0  11127-2 0  9992,2 45376  53.0448 229.8312 0004644 314.9406  45.1228 15.58274777338989
STARLINK-1305,45377,53.0385,0.0009475,15.64648708,367.85137314183703,380.6471451028747,1 45377U 20019T   26125.64424415  .00050523  00000+0  51343-3 0  9997,2 45377  53.0385 215.2843 0009475 326.4043  33.6369 15.64648708339109
STARLINK-1319,45379,53.0411,0.0003999,15.72619819,348.72165715172287,354.103951085056,1 45379U 20019V   26126.70492377  .00056861  00000+0  41678-3 0  9990,2 45379  53.0411 203.3236 0003999 346.9966  13.0948 15.72619819339364
STARLINK-1266,45383,53.0453,0.000442,15.54711354,399.9945585437126,405.9890764183674,1 45383U 20019Z   26126.62248676  .00060763  00000+0  89967-3 0  9996,2 45383  53.0453 214.9278 0004420 309.0089  51.0527 15.54711354339187
STARLINK-1267,45384,53.0464,0.0006444,15.60309019,382.4044394724815,391.12304354814114,1 45384U 20019AA  26125.62922819  .00084194  00000+0  10056-2 0  9990,2 45384  53.0464 211.7189 0006444 354.5054   5.5886 15.60309019339147
STARLINK-1272,45386,53.0394,0.0007978,15.66349091,363.97842412824866,374.7447328600938,1 45386U 20019AC  26126.45639989  .00043298  00000+0  41256-3 0  9994,2 45386  53.0394 187.6390 0007978 349.1294  10.9548 15.66349091339555
STARLINK-1274,45387,53.0234,0.0009145,15.56589016,391.3411315137837,403.7338401483685,1 45387U 20019AD  26126.55407571  .00067516  00000+0  93012-3 0  9992,2 45387  53.0234 184.3310 0009145  13.1144 347.0103 15.56589016339604
STARLINK-1280,45388,53.0381,0.0005249,15.73352123,345.79325459872507,352.8557436805231,1 45388U 20019AE  26126.53910117  .00062531  00000+0  44340-3 0  9998,2 45388  53.0381 196.6899 0005249 357.2048   2.8940 15.73352123339423
STARLINK-1283,45389,53.0402,0.0003871,15.67593924,363.178386938901,368.3995344176574,1 45389U 20019AF  26126.56414181  .00043055  00000+0  39065-3 0  9990,2 45389  53.0402 186.4971 0003871  21.1490 338.9685 15.67593924339588
STARLINK-1284,45390,53.0408,0.0004201,15.66676201,365.5880988601666,371.2565580079172,1 45390U 20019AG  26126.49644187  .00043743  00000+0  41173-3 0  9992,2 45390  53.0408 210.4639 0004201 294.9628  65.0950 15.66676201339230
STARLINK-1297,45395,53.0415,0.0005858,15.65187815,368.7440207150212,376.6532997745644,1 45395U 20019AM  26126.92534739  .00037435  00000+0  37489-3 0  9992,2 45395  53.0415 207.0124 0005858 309.6231  50.4266 15.65187815338501
STARLINK-1307,45397,53.0532,0.0001652,15.54607772,402.17273522970754,404.4133197107849,1 45397U 20019AP  26126.62428749  .00029560  00000+0  44484-3 0  9997,2 45397  53.0532 211.7666 0001652  18.2410 341.8659 15.54607772339057
STARLINK-1255,45399,53.0361,0.0006241,15.61585011,378.8584378605601,387.29778656362305,1 45399U 20019AR  26126.44956774  .00032999  00000+0  38134-3 0  9998,2 45399  53.0361 182.4776 0006241   1.7864 358.3170 15.61585011339436
STARLINK-1260,45404,53.1552,0.0004558,15.35065998,457.60731645224223,463.8416225678475,1 45404U 20019AW  26126.68418774  .00040380  00000+0  11744-2 0  9994,2 45404  53.1552 219.0107 0004558 338.1547  21.9261 15.35065998338863
STARLINK-1263,45405,53.1583,0.0003192,15.32625044,465.79859246084925,470.16915602696736,1 45405U 20019AX  26126.66513284  .00039523  00000+0  12421-2 0  9995,2 45405  53.1583 219.7609 0003192   2.4984 357.6034 15.32625044338858
STARLINK-1265,45406,53.1557,0.0004196,15.35357228,456.9904117328397,462.72885850903367,1 45406U 20019AY  26127.00002315  .00031456  00000+0  90999-3 0  9997,2 45406  53.1557 217.6003 0004196 333.7977 334.0457 15.35357228  5883
STARLINK-1278,45408,53.0403,0.0006073,15.65853889,366.6854833855359,374.8827229574472,1 45408U 20019BA  26126.26696390  .00043971  00000+0  42752-3 0  9997,2 45408  53.0403 209.3856 0006073 334.2253  25.8458 15.65853889338957
